[{"OBJECT_NAME":"OOV-CUBE (TUBSAT-30)","OBJECT_ID":"2024-128F","EPOCH":"2026-04-05T10:51:35.718336","MEAN_MOTION":15.0242578,"ECCENTRICITY":0.00522747,"INCLINATION":61.9933,"RA_OF_ASC_NODE":119.1263,"ARG_OF_PERICENTER":117.8694,"MEAN_ANOMALY":242.7706,"EPHEMERIS_TYPE":0,"CLASSIFICATION_TYPE":"U","NORAD_CAT_ID":60240,"ELEMENT_SET_NO":999,"REV_AT_EPOCH":9518,"BSTAR":0.0002340195,"MEAN_MOTION_DOT":2.993e-5,"MEAN_MOTION_DDOT":0},{"OBJECT_NAME":"LPNTSAT-001 (IOD-1)","OBJECT_ID":"2026-065A","EPOCH":"2026-04-01T04:04:57.158400","MEAN_MOTION":15.18233471,"ECCENTRICITY":0.0015408,"INCLINATION":97.4137,"RA_OF_ASC_NODE":333.2788,"ARG_OF_PERICENTER":273.4606,"MEAN_ANOMALY":86.4866,"EPHEMERIS_TYPE":0,"CLASSIFICATION_TYPE":"U","NORAD_CAT_ID":68408,"ELEMENT_SET_NO":999,"REV_AT_EPOCH":57,"BSTAR":0.00023469,"MEAN_MOTION_DOT":4.75e-5,"MEAN_MOTION_DDOT":0}]
